H1 CPF  1  HTS 2022  1 31 12  5311 larets           NONE
H2  0304206 5557    27944 2022 01 31  0  0  0 2022 02 05  0  0  0   180 1 1  0 0 0
H5  0.0560 
H9 
10 0 59613  33480.00000  0    1907356.923    2805588.463   -6203681.955
10 0 59613  33660.00000  0    1590873.172    1579855.531   -6704265.297
10 0 59613  33840.00000  0    1184140.449     306567.997   -6960977.388
10 0 59613  34020.00000  0     701223.579    -966108.810   -6964428.405
10 0 59613  34200.00000  0     160192.236   -2190420.635   -6714324.509
10 0 59613  34380.00000  0    -417536.508   -3320783.284   -6219500.233
10 0 59613  34560.00000  0   -1008022.249   -4315468.597   -5497658.381
10 0 59613  34740.00000  0   -1585766.835   -5138162.475   -4574805.079
10 0 59613  34920.00000  0   -2124792.549   -5759341.931   -3484385.190
10 0 59613  35100.00000  0   -2599792.645   -6157409.674   -2266123.125
10 0 59613  35280.00000  0   -2987301.288   -6319528.219    -964598.668
10 0 59613  35460.00000  0   -3266825.708   -6242105.257     372401.010
10 0 59613  35640.00000  0   -3421876.343   -5930887.693    1695688.964
10 0 59613  35820.00000  0   -3440835.252   -5400652.006    2956559.034
10 0 59613  36000.00000  0   -3317613.570   -4674505.478    4108647.603
10 0 59613  36180.00000  0   -3052063.393   -3782841.684    5109687.127
10 0 59613  36360.00000  0   -2650127.081   -2762009.226    5923074.996
10 0 59613  36540.00000  0   -2123719.120   -1652770.428    6519196.040
10 0 59613  36720.00000  0   -1490351.665    -498630.206    6876463.187
10 0 59613  36900.00000  0    -772523.212     655898.324    6982047.092
10 0 59613  37080.00000  0       3096.498    1767013.437    6832286.386
10 0 59613  37260.00000  0     806663.063    2793279.716    6432788.640
10 0 59613  37440.00000  0    1606304.046    3697164.665    5798214.946
10 0 59613  37620.00000  0    2369374.650    4446410.115    4951759.870
10 0 59613  37800.00000  0    3063783.867    5015197.811    3924333.735
10 0 59613  37980.00000  0    3659339.646    5385061.238    2753463.522
10 0 59613  38160.00000  0    4129061.507    5545514.692    1481941.347
10 0 59613  38340.00000  0    4450392.999    5494355.427     156251.837
10 0 59613  38520.00000  0    4606250.413    5237625.777   -1175150.950
10 0 59613  38700.00000  0    4585857.074    4789229.608   -2463646.185
10 0 59613  38880.00000  0    4385320.691    4170231.168   -3662248.181
10 0 59613  39060.00000  0    4007922.508    3407872.655   -4727333.787
10 0 59613  39240.00000  0    3464109.283    2534363.410   -5620218.974
10 0 59613  39420.00000  0    2771195.790    1585505.903   -6308530.524
10 0 59613  39600.00000  0    1952793.524     599223.334   -6767328.863
10 0 59613  39780.00000  0    1037996.820    -385944.956   -6979955.617
10 0 59613  39960.00000  0      60357.221   -1332326.804   -6938602.030
10 0 59613  40140.00000  0    -943326.908   -2204533.018   -6644582.824
10 0 59613  40320.00000  0   -1934366.118   -2970762.015   -6108318.945
10 0 59613  40500.00000  0   -2873647.011   -3603961.035   -5349021.179
10 0 59613  40680.00000  0   -3723166.919   -4082805.370   -4394075.564
10 0 59613  40860.00000  0   -4447588.642   -4392460.962   -3278125.335
10 0 59613  41040.00000  0   -5015745.253   -4525089.614   -2041862.084
10 0 59613  41220.00000  0   -5402024.984   -4480067.802    -730556.436
10 0 59613  41400.00000  0   -5587560.933   -4263899.233     607622.239
10 0 59613  41580.00000  0   -5561157.174   -3889819.302    1923430.517
10 0 59613  41760.00000  0   -5319890.377   -3377102.999    3168437.767
10 0 59613  41940.00000  0   -4869351.736   -2750113.508    4296875.929
10 0 59613  42120.00000  0   -4223520.704   -2037148.190    5267367.554
10 0 59613  42300.00000  0   -3404282.718   -1269146.672    6044452.124
10 0 59613  42480.00000  0   -2440629.625    -478334.036    6599861.545
10 0 59613  42660.00000  0   -1367575.446     303144.014    6913508.687
10 0 59613  42840.00000  0    -224841.974    1044527.160    6974157.425
10 0 59613  43020.00000  0     944626.675    1717641.508    6779780.434
10 0 59613  43200.00000  0    2096277.573    2297962.180    6337602.472
10 0 59613  43380.00000  0    3185638.695    2765499.578    5663830.831
10 0 59613  43560.00000  0    4170033.409    3105485.924    4783084.174
10 0 59613  43740.00000  0    5010259.782    3308841.603    3727523.542
10 0 59613  43920.00000  0    5672175.138    3372404.301    2535709.183
10 0 59613  44100.00000  0    6128115.792    3298906.010    1251201.442
10 0 59613  44280.00000  0    6358077.224    3096700.273     -79038.920
10 0 59613  44460.00000  0    6350597.376    2779248.321   -1406395.304
10 0 59613  44640.00000  0    6103291.138    2364387.732   -2682403.413
10 0 59613  44820.00000  0    5623016.224    1873430.279   -3860545.162
10 0 59613  45000.00000  0    4925663.106    1330128.816   -4897956.270
10 0 59613  45180.00000  0    4035580.023     759567.967   -5756971.969
10 0 59613  45360.00000  0    2984674.618     187040.015   -6406453.198
10 0 59613  45540.00000  0    1811238.204    -363044.673   -6822862.987
10 0 59613  45720.00000  0     558543.942    -868170.133   -6991067.354
10 0 59613  45900.00000  0    -726732.903   -1308614.643   -6904852.511
10 0 59613  46080.00000  0   -1996223.746   -1668206.593   -6567148.048
10 0 59613  46260.00000  0   -3201655.829   -1934916.852   -5989956.099
10 0 59613  46440.00000  0   -4296668.819   -2101268.339   -5193981.382
10 0 59613  46620.00000  0   -5238611.199   -2164551.810   -4207964.342
10 0 59613  46800.00000  0   -5990249.198   -2126834.281   -3067710.585
10 0 59613  46980.00000  0   -6521311.994   -1994755.034   -1814833.927
10 0 59613  47160.00000  0   -6809793.799   -1779111.971    -495244.804
10 0 59613  47340.00000  0   -6842938.442   -1494254.168     842562.244
10 0 59613  47520.00000  0   -6617843.930   -1157307.674    2149350.929
10 0 59613  47700.00000  0   -6141644.692    -787276.488    3377028.165
10 0 59613  47880.00000  0   -5431261.610    -404067.997    4480479.717
10 0 59613  48060.00000  0   -4512733.395     -27496.267    5419268.761
10 0 59613  48240.00000  0   -3420179.991     323681.456    6159119.809
10 0 59613  48420.00000  0   -2194458.033     632648.875    6673145.336
10 0 59613  48600.00000  0    -881570.282     885292.953    6942777.652
10 0 59613  48780.00000  0     469097.475    1070817.267    6958386.423
10 0 59613  48960.00000  0    1806641.923    1182184.798    6719578.769
10 0 59613  49140.00000  0    3080552.928    1216377.638    6235187.614
10 0 59613  49320.00000  0    4242613.165    1174465.545    5522950.761
10 0 59613  49500.00000  0    5248725.545    1061482.844    4608884.082
10 0 59613  49680.00000  0    6060606.937     886119.661    3526366.684
10 0 59613  49860.00000  0    6647286.236     660240.497    2314946.203
10 0 59613  50040.00000  0    6986329.120     398248.344    1018901.681
10 0 59613  50220.00000  0    7064736.977     116324.959    -314384.901
10 0 59613  50400.00000  0    6879467.905    -168416.104   -1636188.759
10 0 59613  50580.00000  0    6437548.744    -438820.390   -2898257.139
10 0 59613  50760.00000  0    5755774.995    -678581.254   -4054594.937
10 0 59613  50940.00000  0    4860020.073    -873079.806   -5063146.370
10 0 59613  51120.00000  0    3784195.234   -1010132.110   -5887303.807
10 0 59613  51300.00000  0    2568919.995   -1080613.594   -6497195.010
10 0 59613  51480.00000  0    1259962.801   -1078933.152   -6870712.608
10 0 59613  51660.00000  0     -93480.309   -1003337.945   -6994265.458
10 0 59613  51840.00000  0   -1440610.985    -856041.411   -6863243.926
10 0 59613  52020.00000  0   -2730902.680    -643167.687   -6482192.846
10 0 59613  52200.00000  0   -3915969.026    -374512.748   -5864685.106
10 0 59613  52380.00000  0   -4951372.043     -63129.033   -5032900.740
10 0 59613  52560.00000  0   -5798319.785     275255.403   -4016904.109
10 0 59613  52740.00000  0   -6425185.999     622964.561   -2853624.150
10 0 59613  52920.00000  0   -6808782.327     961223.437   -1585550.630
10 0 59613  53100.00000  0   -6935310.878    1271088.993    -259182.896
10 0 59613  53280.00000  0   -6800936.183    1534414.621    1076716.332
10 0 59613  53460.00000  0   -6411930.932    1734796.405    2372976.810
10 0 59613  53640.00000  0   -5784392.180    1858451.108    3581901.846
10 0 59613  53820.00000  0   -4943534.723    1894973.497    4659086.376
10 0 59613  54000.00000  0   -3922606.479    1837932.827    5565079.855
10 0 59613  54180.00000  0   -2761498.143    1685282.543    6266828.486
10 0 59613  54360.00000  0   -1505116.620    1439567.183    6738854.818
10 0 59613  54540.00000  0    -201595.322    1107917.308    6964133.424
10 0 59613  54720.00000  0    1099570.737     701836.891    6934648.643
10 0 59613  54900.00000  0    2349401.040     236794.340    6651640.831
10 0 59613  55080.00000  0    3501261.910    -268368.812    6125541.949
10 0 59613  55260.00000  0    4512601.853    -792193.998    5375602.143
10 0 59613  55440.00000  0    5346532.103   -1311501.280    4429211.037
10 0 59613  55620.00000  0    5973197.762   -1802391.672    3320929.253
10 0 59613  55800.00000  0    6370886.099   -2241316.649    2091249.166
10 0 59613  55980.00000  0    6526818.046   -2606167.297     785120.924
10 0 59613  56160.00000  0    6437583.494   -2877329.938    -549704.285
10 0 59613  56340.00000  0    6109193.935   -3038654.345   -1864450.364
10 0 59613  56520.00000  0    5556744.686   -3078282.667   -3111133.007
10 0 59613  56700.00000  0    4803709.238   -2989296.100   -4244331.878
10 0 59613  56880.00000  0    3880909.663   -2770151.607   -5222846.221
10 0 59613  57060.00000  0    2825215.000   -2424888.790   -6011169.599
10 0 59613  57240.00000  0    1678041.193   -1963101.100   -6580729.988
10 0 59613  57420.00000  0     483721.385   -1399678.305   -6910875.317
10 0 59613  57600.00000  0    -712197.517    -754327.314   -6989576.227
10 0 59613  57780.00000  0   -1864665.656     -50893.888   -6813837.297
99
